     2              NAVIGATION DATA                         RINEX VERSION / TYPE
CCRINEXN V1.6.0 UX  CDDIS               15-JUN-16 15:33     PGM / RUN BY / DATE 
IGS BROADCAST EPHEMERIS FILE                                COMMENT             
    0.8382D-08  0.2235D-07 -0.5960D-07 -0.1192D-06          ION ALPHA           
    0.9421D+05  0.1311D+06 -0.6554D+05 -0.5898D+06          ION BETA            
    0.279396772385D-08 0.124344978758D-13   405504     1901 DELTA-UTC: A0,A1,T,W
    17                                                      LEAP SECONDS        
                                                            END OF HEADER       
31 16  6 14 14  0  0.0 0.263955909759D-03-0.193267624127D-11 0.000000000000D+00
    0.820000000000D+02 0.315937500000D+02 0.465912264259D-08 0.286292426623D+01
    0.173784792423D-05 0.815584836528D-02 0.407360494137D-05 0.515376090813D+04
    0.223200000000D+06-0.106170773506D-06 0.633217261709D+00 0.165775418282D-06
    0.971168381015D+00 0.307562500000D+03-0.396008938242D+00-0.811212361680D-08
    0.314298806093D-10 0.100000000000D+01 0.190100000000D+04 0.000000000000D+00
    0.200000000000D+01 0.000000000000D+00-0.135041773319D-07 0.820000000000D+02
    0.220020000000D+06 0.400000000000D+01 0.000000000000D+00 0.000000000000D+00
 5 16  6 14 15 59 44.0-0.112895388156D-03 0.295585778076D-11 0.000000000000D+00
    0.100000000000D+02-0.235625000000D+02 0.475841249269D-08 0.134661077865D+01
   -0.113807618618D-05 0.464080111124D-02 0.884011387825D-05 0.515381199455D+04
    0.230384000000D+06-0.465661287308D-07-0.150555104797D+01 0.149011611938D-07
    0.945968075184D+00 0.202718750000D+03 0.452410005378D+00-0.812212403335D-08
   -0.290012080167D-09 0.100000000000D+01 0.190100000000D+04 0.000000000000D+00
    0.200000000000D+01 0.000000000000D+00-0.107102096081D-07 0.100000000000D+02
    0.229440000000D+06 0.400000000000D+01 0.000000000000D+00 0.000000000000D+00
 7 16  6 14 15 59 44.0 0.448478385806D-03-0.238742359215D-11 0.000000000000D+00
    0.100000000000D+02 0.262187500000D+02 0.468555231492D-08-0.223750733346D+01
    0.109151005745D-05 0.957724929322D-02 0.424683094025D-05 0.515364443588D+04
    0.230384000000D+06 0.137835741043D-06 0.623728856970D+00-0.191852450371D-06
    0.966358462903D+00 0.302343750000D+03-0.267219335046D+01-0.821141346690D-08
    0.147863301957D-09 0.100000000000D+01 0.190100000000D+04 0.000000000000D+00
    0.200000000000D+01 0.000000000000D+00-0.111758708954D-07 0.100000000000D+02
    0.227700000000D+06 0.400000000000D+01 0.000000000000D+00 0.000000000000D+00
11 16  6 14 15 59 44.0-0.651039648801D-03-0.272848410532D-11 0.000000000000D+00
    0.200000000000D+02 0.114375000000D+02 0.591096050094D-08-0.212066357493D+01
    0.720843672752D-06 0.164601327851D-01 0.525079667568D-05 0.515366503716D+04
    0.230384000000D+06 0.283122062683D-06-0.291322339965D+01 0.126659870148D-06
    0.897129089073D+00 0.241718750000D+03 0.153132245946D+01-0.853714132049D-08
    0.189650756858D-09 0.000000000000D+00 0.190100000000D+04 0.000000000000D+00
    0.200000000000D+01 0.000000000000D+00-0.121071934700D-07 0.200000000000D+02
    0.229740000000D+06 0.400000000000D+01 0.000000000000D+00 0.000000000000D+00
18 16  6 14 15 59 44.0 0.526406336576D-03 0.397903932026D-11 0.000000000000D+00
    0.200000000000D+01-0.415937500000D+02 0.514342853016D-08 0.213555853868D+01
   -0.224821269512D-05 0.172377082054D-01 0.892579555512D-05 0.515369127083D+04
    0.230384000000D+06 0.186264514923D-06-0.152705573893D+01-0.363215804100D-06
    0.924627412454D+00 0.184593750000D+03-0.187781072981D+01-0.814212486647D-08
   -0.218223375594D-09 0.000000000000D+00 0.190100000000D+04 0.000000000000D+00
    0.200000000000D+01 0.000000000000D+00-0.121071934700D-07 0.200000000000D+01
    0.226290000000D+06 0.400000000000D+01 0.000000000000D+00 0.000000000000D+00
19 16  6 14 15 59 44.0-0.525474548340D-03 0.113686837722D-12 0.000000000000D+00
    0.100000000000D+01-0.246875000000D+01 0.419874623958D-08-0.258011980569D+01
   -0.119209289551D-06 0.107807111926D-01 0.821053981781D-05 0.515362442970D+04
    0.230384000000D+06 0.130385160446D-06 0.278950660622D+01-0.124797224999D-06
    0.973993973639D+00 0.226250000000D+03 0.789724619269D+00-0.777925279749D-08
    0.236795583142D-09 0.100000000000D+01 0.190100000000D+04 0.000000000000D+00
    0.200000000000D+01 0.000000000000D+00-0.149011611938D-07 0.100000000000D+01
    0.224280000000D+06 0.000000000000D+00 0.000000000000D+00 0.000000000000D+00
21 16  6 14 15 59 44.0-0.525796320289D-03-0.102318153950D-11 0.000000000000D+00
    0.000000000000D+00-0.105000000000D+02 0.510628412580D-08 0.303276301923D+01
   -0.581145286560D-06 0.233528534882D-01 0.500306487083D-05 0.515359696198D+04
    0.230384000000D+06 0.253319740295D-06-0.256913704769D+01-0.143423676491D-06
    0.936617531457D+00 0.265343750000D+03-0.178300825766D+01-0.801711965950D-08
    0.482162941165D-10 0.000000000000D+00 0.190100000000D+04 0.000000000000D+00
    0.200000000000D+01 0.000000000000D+00-0.102445483208D-07 0.000000000000D+00
    0.224040000000D+06 0.400000000000D+01 0.000000000000D+00 0.000000000000D+00
27 16  6 14 15 59 44.0 0.103490427136D-03 0.420641299570D-11 0.000000000000D+00
    0.170000000000D+02-0.125937500000D+02 0.427910681340D-08 0.578223254051D+00
   -0.512227416038D-06 0.372034066822D-02 0.851228833198D-05 0.515364325142D+04
    0.230384000000D+06-0.372529029846D-08 0.269080225945D+01 0.372529029846D-08
    0.971790511798D+00 0.215781250000D+03 0.300676547425D+00-0.792783022595D-08
    0.717887045734D-10 0.100000000000D+01 0.190100000000D+04 0.000000000000D+00
    0.200000000000D+01 0.000000000000D+00 0.139698386192D-08 0.170000000000D+02
    0.223950000000D+06 0.400000000000D+01 0.000000000000D+00 0.000000000000D+00
28 16  6 14 15 59 44.0 0.530128367245D-03 0.272848410532D-11 0.000000000000D+00
    0.280000000000D+02-0.495937500000D+02 0.393587823084D-08 0.138122287035D+01
   -0.294670462608D-05 0.197294093669D-01 0.747106969357D-05 0.515363212776D+04
    0.230384000000D+06-0.186264514923D-06 0.172429768760D+01-0.473111867905D-06
    0.989319469790D+00 0.256250000000D+03-0.161608278166D+01-0.787782814316D-08
   -0.172864343351D-09 0.100000000000D+01 0.190100000000D+04 0.000000000000D+00
    0.200000000000D+01 0.000000000000D+00-0.111758708954D-07 0.280000000000D+02
    0.229080000000D+06 0.400000000000D+01 0.000000000000D+00 0.000000000000D+00
31 16  6 14 15 59 44.0 0.263942405581D-03-0.193267624127D-11 0.000000000000D+00
    0.200000000000D+01 0.315312500000D+02 0.464447917549D-08-0.237245541127D+01
    0.172667205334D-05 0.815563660581D-02 0.414066016674D-05 0.515376134682D+04
    0.230384000000D+06-0.214204192162D-06 0.633158889815D+00 0.596046447754D-07
    0.971168470253D+00 0.309375000000D+03-0.396019822352D+00-0.816248285732D-08
    0.585738684082D-10 0.000000000000D+00 0.190100000000D+04 0.000000000000D+00
    0.200000000000D+01 0.000000000000D+00-0.135041773319D-07 0.200000000000D+01
    0.227640000000D+06 0.400000000000D+01 0.000000000000D+00 0.000000000000D+00
 1 16  6 14 16  0  0.0 0.236248597503D-04 0.125055521494D-11 0.000000000000D+00
    0.970000000000D+02-0.161562500000D+02 0.450875923649D-08-0.151251681140D+01
   -0.806525349617D-06 0.557031156495D-02 0.555627048016D-05 0.515363920975D+04
    0.230400000000D+06 0.540167093277D-07-0.253504643070D+01-0.143423676491D-06
    0.964605015145D+00 0.276000000000D+03 0.471871582020D+00-0.802569144512D-08
    0.571452374714D-10 0.100000000000D+01 0.190100000000D+04 0.000000000000D+00
    0.200000000000D+01 0.000000000000D+00 0.512227416039D-08 0.970000000000D+02
    0.223218000000D+06 0.400000000000D+01 0.000000000000D+00 0.000000000000D+00
 2 16  6 14 16  0  0.0 0.585448462516D-03-0.261479726760D-11 0.000000000000D+00
    0.480000000000D+02-0.106875000000D+02 0.517521556850D-08-0.114911039672D+01
   -0.409781932831D-06 0.157684028382D-01 0.545755028725D-05 0.515357279015D+04
    0.230400000000D+06 0.257045030594D-06-0.258095595115D+01 0.329688191414D-06
    0.943409029161D+00 0.265593750000D+03-0.210906037728D+01-0.848071039849D-08
   -0.714315468392D-11 0.100000000000D+01 0.190100000000D+04 0.000000000000D+00
    0.200000000000D+01 0.000000000000D+00-0.200234353542D-07 0.480000000000D+02
    0.223830000000D+06 0.400000000000D+01 0.000000000000D+00 0.000000000000D+00
 3 16  6 14 16  0  0.0-0.672298483551D-04-0.341060513165D-11 0.000000000000D+00
    0.770000000000D+02-0.300000000000D+02 0.440054044303D-08-0.503389736569D+00
   -0.147335231304D-05 0.228050164878D-03 0.880286097527D-05 0.515368341827D+04
    0.230400000000D+06-0.186264514923D-07-0.149340691149D+01 0.121071934700D-06
    0.958904427155D+00 0.209781250000D+03-0.167454508135D+01-0.790961518151D-08
   -0.146791828755D-09 0.100000000000D+01 0.190100000000D+04 0.000000000000D+00
    0.200000000000D+01 0.000000000000D+00 0.186264514923D-08 0.770000000000D+02
    0.223200000000D+06 0.400000000000D+01 0.000000000000D+00 0.000000000000D+00
 4 16  6 14 16  0  0.0-0.257765408605D-03-0.454747350886D-12 0.000000000000D+00
    0.770000000000D+02-0.638437500000D+02 0.539879631011D-08 0.167034807764D+01
   -0.327825546265D-05 0.851351430174D-02 0.764429569244D-05 0.515365448952D+04
    0.230400000000D+06-0.216066837311D-06 0.167114613895D+01-0.260770320892D-07
    0.983079028456D+00 0.247156250000D+03 0.896400519297D+00-0.794068790438D-08
   -0.244295890190D-09 0.100000000000D+01 0.190100000000D+04 0.000000000000D+00
    0.400000000000D+01 0.630000000000D+02-0.195577740669D-07 0.770000000000D+02
    0.223200000000D+06 0.400000000000D+01 0.000000000000D+00 0.000000000000D+00
